{"type": "FeatureCollection", "features": [ {"type": "Feature", "properties": {"norad_id": 66939, "name": "STARLINK-36154", "group": "last-30-days", "lat": -35.28508857866879, "lon": -25.10407984873262, "alt_km": 351.71796374365204, "timestamp": "2025-12-21T09:37:21.374132+00:00", "meta": {"OBJECT_NAME": "STARLINK-36154", "OBJECT_ID": "2025-286Q", "EPOCH": "2025-12-21T04:00:01.998720", "MEAN_MOTION": 15.74267763, "ECCENTRICITY": 0.0001322, "INCLINATION": 53.1574, "RA_OF_ASC_NODE": 8.1047, "ARG_OF_PERICENTER": 88.9863, "MEAN_ANOMALY": 336.5479, "EPHEMERIS_TYPE": 0, "CLASSIFICATION_TYPE": "U", "NORAD_CAT_ID": 66939, "ELEMENT_SET_NO": 999, "REV_AT_EPOCH": 334, "BSTAR": -0.0010572, "MEAN_MOTION_DOT": -0.00153211, "MEAN_MOTION_DDOT": 0}, "tle": {"line1": "1 66939U 25286Q   25355.16668980 -.00153211  00000+0 -10572-2 0  9991", "line2": "2 66939  53.1574   8.1047 0001322  88.9863 336.5479 15.74267763  3345"}}, "geometry": {"type": "Point", "coordinates": [-25.10407984873262, -35.28508857866879]}}, {"type": "Feature", "properties": {"norad_id": 66940, "name": "STARLINK-36121", "group": "last-30-days", "lat": -33.97582786223286, "lon": -23.413335930195593, "alt_km": 351.38033462914973, "timestamp": "2025-12-21T09:37:21.374143+00:00", "meta": {"OBJECT_NAME": "STARLINK-36121", "OBJECT_ID": "2025-286R", "EPOCH": "2025-12-21T04:00:01.998720", "MEAN_MOTION": 15.74245317, "ECCENTRICITY": 8.81e-05, "INCLINATION": 53.1574, "RA_OF_ASC_NODE": 8.1001, "ARG_OF_PERICENTER": 81.9281, "MEAN_ANOMALY": 345.5327, "EPHEMERIS_TYPE": 0, "CLASSIFICATION_TYPE": "U", "NORAD_CAT_ID": 66940, "ELEMENT_SET_NO": 999, "REV_AT_EPOCH": 334, "BSTAR": -0.00086811, "MEAN_MOTION_DOT": -0.00126184, "MEAN_MOTION_DDOT": 0}, "tle": {"line1": "1 66940U 25286R   25355.16668980 -.00126184  00000+0 -86811-3 0  9992", "line2": "2 66940  53.1574   8.1001 0000881  81.9281 345.5327 15.74245317  3346"}}, "geometry": {"type": "Point", "coordinates": [-23.413335930195593, -33.97582786223286]}}, {"type": "Feature", "properties": {"norad_id": 66941, "name": "STARLINK-36088", "group": "last-30-days", "lat": -36.578057617374085, "lon": -26.8621385744229, "alt_km": 351.6396608156365, "timestamp": "2025-12-21T09:37:21.374153+00:00", "meta": {"OBJECT_NAME": "STARLINK-36088", "OBJECT_ID": "2025-286S", "EPOCH": "2025-12-21T04:00:01.998720", "MEAN_MOTION": 15.74266858, "ECCENTRICITY": 0.000106, "INCLINATION": 53.1577, "RA_OF_ASC_NODE": 8.1081, "ARG_OF_PERICENTER": 81.0035, "MEAN_ANOMALY": 342.6074, "EPHEMERIS_TYPE": 0, "CLASSIFICATION_TYPE": "U", "NORAD_CAT_ID": 66941, "ELEMENT_SET_NO": 999, "REV_AT_EPOCH": 334, "BSTAR": -0.0012213, "MEAN_MOTION_DOT": -0.00176391, "MEAN_MOTION_DDOT": 0}, "tle": {"line1": "1 66941U 25286S   25355.16668980 -.00176391  00000+0 -12213-2 0  9992", "line2": "2 66941  53.1577   8.1081 0001060  81.0035 342.6074 15.74266858  3346"}}, "geometry": {"type": "Point", "coordinates": [-26.8621385744229, -36.578057617374085]}}, {"type": "Feature", "properties": {"norad_id": 66942, "name": "STARLINK-36100", "group": "last-30-days", "lat": -32.66836634659735, "lon": -21.80334455790274, "alt_km": 351.6409518927012, "timestamp": "2025-12-21T09:37:21.374163+00:00", "meta": {"OBJECT_NAME": "STARLINK-36100", "OBJECT_ID": "2025-286T", "EPOCH": "2025-12-21T04:00:01.998720", "MEAN_MOTION": 15.74170997, "ECCENTRICITY": 0.000117, "INCLINATION": 53.1573, "RA_OF_ASC_NODE": 8.096, "ARG_OF_PERICENTER": 91.4176, "MEAN_ANOMALY": 337.9764, "EPHEMERIS_TYPE": 0, "CLASSIFICATION_TYPE": "U", "NORAD_CAT_ID": 66942, "ELEMENT_SET_NO": 999, "REV_AT_EPOCH": 327, "BSTAR": -0.00047038, "MEAN_MOTION_DOT": -0.00068904, "MEAN_MOTION_DDOT": 0}, "tle": {"line1": "1 66942U 25286T   25355.16668980 -.00068904  00000+0 -47038-3 0  9997", "line2": "2 66942  53.1573   8.0960 0001170  91.4176 337.9764 15.74170997  3274"}}, "geometry": {"type": "Point", "coordinates": [-21.80334455790274, -32.66836634659735]}}, {"type": "Feature", "properties": {"norad_id": 66943, "name": "STARLINK-36109", "group": "last-30-days", "lat": -31.29143359030215, "lon": -20.183159111951618, "alt_km": 351.470397916014, "timestamp": "2025-12-21T09:37:21.374173+00:00", "meta": {"OBJECT_NAME": "STARLINK-36109", "OBJECT_ID": "2025-286U", "EPOCH": "2025-12-21T04:00:01.998720", "MEAN_MOTION": 15.74207583, "ECCENTRICITY": 0.0001162, "INCLINATION": 53.1574, "RA_OF_ASC_NODE": 8.0919, "ARG_OF_PERICENTER": 96.5059, "MEAN_ANOMALY": 334.8053, "EPHEMERIS_TYPE": 0, "CLASSIFICATION_TYPE": "U", "NORAD_CAT_ID": 66943, "ELEMENT_SET_NO": 999, "REV_AT_EPOCH": 327, "BSTAR": -0.00041992, "MEAN_MOTION_DOT": -0.00061728, "MEAN_MOTION_DDOT": 0}, "tle": {"line1": "1 66943U 25286U   25355.16668980 -.00061728  00000+0 -41992-3 0  9998", "line2": "2 66943  53.1574   8.0919 0001162  96.5059 334.8053 15.74207583  3276"}}, "geometry": {"type": "Point", "coordinates": [-20.183159111951618, -31.29143359030215]}}, {"type": "Feature", "properties": {"norad_id": 66944, "name": "STARLINK-36112", "group": "last-30-days", "lat": -29.91766958437498, "lon": -18.635160113796317, "alt_km": 351.28691938465363, "timestamp": "2025-12-21T09:37:21.374183+00:00", "meta": {"OBJECT_NAME": "STARLINK-36112", "OBJECT_ID": "2025-286V", "EPOCH": "2025-12-21T04:00:01.998720", "MEAN_MOTION": 15.74195134, "ECCENTRICITY": 7.84e-05, "INCLINATION": 53.1575, "RA_OF_ASC_NODE": 8.0881, "ARG_OF_PERICENTER": 113.2399, "MEAN_ANOMALY": 319.9921, "EPHEMERIS_TYPE": 0, "CLASSIFICATION_TYPE": "U", "NORAD_CAT_ID": 66944, "ELEMENT_SET_NO": 999, "REV_AT_EPOCH": 334, "BSTAR": -0.00031491, "MEAN_MOTION_DOT": -0.00046504, "MEAN_MOTION_DDOT": 0}, "tle": {"line1": "1 66944U 25286V   25355.16668980 -.00046504  00000+0 -31491-3 0  9997", "line2": "2 66944  53.1575   8.0881 0000784 113.2399 319.9921 15.74195134  3343"}}, "geometry": {"type": "Point", "coordinates": [-18.635160113796317, -29.91766958437498]}}, {"type": "Feature", "properties": {"norad_id": 66945, "name": "STARLINK-36110", "group": "last-30-days", "lat": -28.52966527484149, "lon": -17.134234035724333, "alt_km": 351.3549312491532, "timestamp": "2025-12-21T09:37:21.374195+00:00", "meta": {"OBJECT_NAME": "STARLINK-36110", "OBJECT_ID": "2025-286W", "EPOCH": "2025-12-21T04:00:01.998720", "MEAN_MOTION": 15.74199556, "ECCENTRICITY": 0.0001199, "INCLINATION": 53.1573, "RA_OF_ASC_NODE": 8.0837, "ARG_OF_PERICENTER": 103.6041, "MEAN_ANOMALY": 331.5433, "EPHEMERIS_TYPE": 0, "CLASSIFICATION_TYPE": "U", "NORAD_CAT_ID": 66945, "ELEMENT_SET_NO": 999, "REV_AT_EPOCH": 334, "BSTAR": -0.0003705, "MEAN_MOTION_DOT": -0.00054565, "MEAN_MOTION_DDOT": 0}, "tle": {"line1": "1 66945U 25286W   25355.16668980 -.00054565  00000+0 -37050-3 0  9991", "line2": "2 66945  53.1573   8.0837 0001199 103.6041 331.5433 15.74199556  3341"}}, "geometry": {"type": "Point", "coordinates": [-17.134234035724333, -28.52966527484149]}}, {"type": "Feature", "properties": {"norad_id": 66946, "name": "STARLINK-36115", "group": "last-30-days", "lat": -27.124249923682406, "lon": -15.670767741129843, "alt_km": 351.20590277337396, "timestamp": "2025-12-21T09:37:21.374205+00:00", "meta": {"OBJECT_NAME": "STARLINK-36115", "OBJECT_ID": "2025-286X", "EPOCH": "2025-12-21T04:00:01.998720", "MEAN_MOTION": 15.74188396, "ECCENTRICITY": 0.0001199, "INCLINATION": 53.1572, "RA_OF_ASC_NODE": 8.0798, "ARG_OF_PERICENTER": 99.3453, "MEAN_ANOMALY": 337.7236, "EPHEMERIS_TYPE": 0, "CLASSIFICATION_TYPE": "U", "NORAD_CAT_ID": 66946, "ELEMENT_SET_NO": 999, "REV_AT_EPOCH": 334, "BSTAR": -0.00024077, "MEAN_MOTION_DOT": -0.00035741, "MEAN_MOTION_DDOT": 0}, "tle": {"line1": "1 66946U 25286X   25355.16668980 -.00035741  00000+0 -24077-3 0  9992", "line2": "2 66946  53.1572   8.0798 0001199  99.3453 337.7236 15.74188396  3344"}}, "geometry": {"type": "Point", "coordinates": [-15.670767741129843, -27.124249923682406]}}, {"type": "Feature", "properties": {"norad_id": 66947, "name": "STARLINK-36089", "group": "last-30-days", "lat": -24.263999936275816, "lon": -12.845591049970094, "alt_km": 350.7713602474687, "timestamp": "2025-12-21T09:37:21.374215+00:00", "meta": {"OBJECT_NAME": "STARLINK-36089", "OBJECT_ID": "2025-286Y", "EPOCH": "2025-12-21T04:00:01.998720", "MEAN_MOTION": 15.74195544, "ECCENTRICITY": 8.23e-05, "INCLINATION": 53.1571, "RA_OF_ASC_NODE": 8.0715, "ARG_OF_PERICENTER": 97.2284, "MEAN_ANOMALY": 343.672, "EPHEMERIS_TYPE": 0, "CLASSIFICATION_TYPE": "U", "NORAD_CAT_ID": 66947, "ELEMENT_SET_NO": 999, "REV_AT_EPOCH": 334, "BSTAR": -0.0003336, "MEAN_MOTION_DOT": -0.00049212, "MEAN_MOTION_DDOT": 0}, "tle": {"line1": "1 66947U 25286Y   25355.16668980 -.00049212  00000+0 -33360-3 0  9996", "line2": "2 66947  53.1571   8.0715 0000823  97.2284 343.6720 15.74195544  3342"}}, "geometry": {"type": "Point", "coordinates": [-12.845591049970094, -24.263999936275816]}}, {"type": "Feature", "properties": {"norad_id": 66948, "name": "STARLINK-36116", "group": "last-30-days", "lat": -25.697935048582426, "lon": -14.238099964468388, "alt_km": 350.8315523348583, "timestamp": "2025-12-21T09:37:21.374227+00:00", "meta": {"OBJECT_NAME": "STARLINK-36116", "OBJECT_ID": "2025-286Z", "EPOCH": "2025-12-21T04:00:01.998720", "MEAN_MOTION": 15.74207811, "ECCENTRICITY": 7.22e-05, "INCLINATION": 53.1573, "RA_OF_ASC_NODE": 8.0756, "ARG_OF_PERICENTER": 96.9934, "MEAN_ANOMALY": 341.9841, "EPHEMERIS_TYPE": 0, "CLASSIFICATION_TYPE": "U", "NORAD_CAT_ID": 66948, "ELEMENT_SET_NO": 999, "REV_AT_EPOCH": 334, "BSTAR": -0.00043413, "MEAN_MOTION_DOT": -0.00063777, "MEAN_MOTION_DDOT": 0}, "tle": {"line1": "1 66948U 25286Z   25355.16668980 -.00063777  00000+0 -43413-3 0  9999", "line2": "2 66948  53.1573   8.0756 0000722  96.9934 341.9841 15.74207811  3342"}}, "geometry": {"type": "Point", "coordinates": [-14.238099964468388, -25.697935048582426]}}]}